[{"OBJECT_NAME":"STARLINK-31561","OBJECT_ID":"2024-060E","EPOCH":"2026-03-09T12:46:28.245504","MEAN_MOTION":15.27576343,"ECCENTRICITY":6.664e-5,"INCLINATION":42.9985,"RA_OF_ASC_NODE":260.3254,"ARG_OF_PERICENTER":172.8342,"MEAN_ANOMALY":187.2519,"EPHEMERIS_TYPE":0,"CLASSIFICATION_TYPE":"U","NORAD_CAT_ID":59352,"ELEMENT_SET_NO":999,"REV_AT_EPOCH":11004,"BSTAR":6.634525e-6,"MEAN_MOTION_DOT":-7.9e-7,"MEAN_MOTION_DDOT":0},{"OBJECT_NAME":"SIMSAT 2","OBJECT_ID":"2000-026B","EPOCH":"2026-03-09T20:25:01.673184","MEAN_MOTION":15.29036787,"ECCENTRICITY":0.00037035,"INCLINATION":86.3514,"RA_OF_ASC_NODE":176.4271,"ARG_OF_PERICENTER":287.9875,"MEAN_ANOMALY":72.0969,"EPHEMERIS_TYPE":0,"CLASSIFICATION_TYPE":"U","NORAD_CAT_ID":26366,"ELEMENT_SET_NO":999,"REV_AT_EPOCH":42803,"BSTAR":0.00013465771,"MEAN_MOTION_DOT":3.833e-5,"MEAN_MOTION_DDOT":0}]
